GLOBALSTAR M075         
1 37192U 10054E   25273.08715997 -.00000077  00000+0  14895-3 0  9991
2 37192  51.9936 222.1394 0000466  63.1841  18.7250 12.62267982689099
GLOBALSTAR M073         
1 37193U 10054F   25273.10563654 -.00000091  00000+0  68980-4 0  9997
2 37193  52.0042 135.9841 0000777  92.1368  73.1845 12.62263062691081
GLOBALSTAR M083         
1 37739U 11033A   25273.19925781 -.00000079  00000+0  13729-3 0  9999
2 37739  51.9849  84.2823 0000959  99.2149  72.5937 12.62276445660117
GLOBALSTAR M088         
1 37740U 11033B   25272.93559446 -.00000082  00000+0  12194-3 0  9992
2 37740  52.0242 350.8855 0000533  95.6880  76.5135 12.62268150655623
GLOBALSTAR M091         
1 37741U 11033C   25273.07288456 -.00000081  00000+0  12609-3 0  9999
2 37741  52.0007 313.8173 0000561  91.5394 285.9317 12.62260050656430
GLOBALSTAR M085         
1 37742U 11033D   25273.15237213 -.00000080  00000+0  13252-3 0  9998
2 37742  52.0116 264.6398 0000594  81.2762 357.2024 12.62265125656958
GLOBALSTAR M081         
1 37743U 11033E   25273.24380574 -.00000070  00000+0  18849-3 0  9994
2 37743  51.9946 267.0942 0000420  99.7926 273.7644 12.62268771657113
GLOBALSTAR M089         
1 37744U 11033F   25272.89193308 -.00000077  00000+0  15185-3 0  9999
2 37744  51.9920 222.3717 0000270  38.9765 355.6170 12.62267272657916
